NORAD_CAT_ID,OBJECT_NAME,OBJECT_TYPE,EPOCH,MEAN_MOTION,ECCENTRICITY,INCLINATION,RA_OF_ASC_NODE,ARG_OF_PERICENTER,MEAN_ANOMALY,BSTAR,MEAN_MOTION_DOT,MEAN_MOTION_DDOT,TLE_LINE0,TLE_LINE1,TLE_LINE2,SEMIMAJOR_AXIS,PERIOD,APOGEE,PERIGEE,DECAYED
52556.0,STARLINK-3763,PAYLOAD,2024-06-02 15:36:09,15.12120803,0.0001286,53.2182,130.3373,87.4497,272.6644,3.7022e-05,3.48e-06,0.0,0 STARLINK-3763,1 52556U 22051Z   24154.65011111  .00000348  00000-0  37022-4 0  9998,2 52556  53.2182 130.3373 0001286  87.4497 272.6644 15.12120803114271,6907.87,95.23,530.624,528.847,0.0
52556.0,STARLINK-3763,PAYLOAD,2024-06-03 12:13:29,15.12111259,0.0001339,53.2185,126.4595,87.7252,272.3895,2.8947e-05,2.07e-06,0.0,0 STARLINK-3763,1 52556U 22051Z   24155.50936966  .00000207  00000-0  28947-4 0  9997,2 52556  53.2185 126.4595 0001339  87.7252 272.3895 15.12111259114479,6907.899,95.231,530.689,528.84,0.0
52556.0,STARLINK-3763,PAYLOAD,2024-06-03 21:44:33,15.12115406,0.000134,53.2182,124.6712,87.959,272.1557,5.5258e-06,-2.01e-06,0.0,0 STARLINK-3763,1 52556U 22051Z   24155.90594698 -.00000201  00000-0  55258-5 0  9994,2 52556  53.2182 124.6712 0001340  87.9590 272.1557 15.12115406114466,6907.887,95.231,530.678,528.826,0.0
52556.0,STARLINK-3763,PAYLOAD,2024-06-04 12:01:10,15.12120155,0.0001322,53.2181,121.9878,88.1609,271.9536,1.1478e-05,-9.7e-07,0.0,0 STARLINK-3763,1 52556U 22051Z   24156.50081020 -.00000097  00000-0  11478-4 0  9999,2 52556  53.2181 121.9878 0001322  88.1609 271.9536 15.12120155114621,6907.872,95.231,530.651,528.824,0.0
52556.0,STARLINK-3763,PAYLOAD,2024-06-04 21:32:14,15.12120451,0.0001345,53.2182,120.1985,87.1462,272.9686,-1.7345e-05,-6e-06,0.0,0 STARLINK-3763,1 52556U 22051Z   24156.89738824 -.00000600  00000-0 -17345-4 0  9992,2 52556  53.2182 120.1985 0001345  87.1462 272.9686 15.12120451114618,6907.871,95.231,530.666,528.807,0.0
52556.0,STARLINK-3763,PAYLOAD,2024-06-05 11:48:51,15.12113767,0.0001311,53.2185,117.5142,89.7419,270.3724,-4.0238e-05,-9.98e-06,0.0,0 STARLINK-3763,1 52556U 22051Z   24157.49226070 -.00000998  00000-0 -40238-4 0  9991,2 52556  53.2185 117.5142 0001311  89.7419 270.3724 15.12113767114773,6907.892,95.231,530.662,528.851,0.0
52556.0,STARLINK-3763,PAYLOAD,2024-06-05 21:19:55,15.12115943,0.0001307,53.2183,115.7242,94.4439,265.6704,1.9549e-05,4.3e-07,0.0,0 STARLINK-3763,1 52556U 22051Z   24157.88883545  .00000043  00000-0  19549-4 0  9990,2 52556  53.2183 115.7242 0001307  94.4439 265.6704 15.12115943114764,6907.885,95.231,530.653,528.847,0.0
52556.0,STARLINK-3763,PAYLOAD,2024-06-06 03:40:37,15.12121296,0.0001339,53.2176,114.5319,95.394,264.7206,4.0263e-05,4.04e-06,0.0,0 STARLINK-3763,1 52556U 22051Z   24158.15321595  .00000404  00000-0  40263-4 0  9991,2 52556  53.2176 114.5319 0001339  95.3940 264.7206 15.12121296114877,6907.869,95.23,530.659,528.809,0.0
52556.0,STARLINK-3763,PAYLOAD,2024-06-06 11:36:31,15.12116307,0.0001317,53.2188,113.0409,89.3365,270.7779,-2.1801e-05,-6.77e-06,0.0,0 STARLINK-3763,1 52556U 22051Z   24158.48370265 -.00000677  00000-0 -21801-4 0  9996,2 52556  53.2188 113.0409 0001317  89.3365 270.7779 15.12116307114929,6907.884,95.231,530.659,528.839,0.0
52556.0,STARLINK-3763,PAYLOAD,2024-06-07 09:49:02,15.12108727,0.0001266,53.2179,108.8667,96.1438,263.9699,2.7638e-05,1.84e-06,0.0,0 STARLINK-3763,1 52556U 22051Z   24159.40905401  .00000184  00000-0  27638-4 0  9990,2 52556  53.2179 108.8667 0001266  96.1438 263.9699 15.12108727114996,6907.907,95.231,530.647,528.898,0.0
52556.0,STARLINK-3763,PAYLOAD,2024-06-07 20:55:16,15.12114979,0.0001359,53.2165,106.7786,121.0569,239.0559,2.8597e-05,2.01e-06,0.0,0 STARLINK-3763,1 52556U 22051Z   24159.87172342  .00000201  00000-0  28597-4 0  9996,2 52556  53.2165 106.7786 0001359 121.0569 239.0559 15.12114979115138,6907.888,95.231,530.692,528.814,0.0
52556.0,STARLINK-3763,PAYLOAD,2024-06-08 12:47:04,15.12115786,0.0001198,53.218,103.7971,87.1527,272.9603,-4.0102e-06,-3.67e-06,0.0,0 STARLINK-3763,1 52556U 22051Z   24160.53268821 -.00000367  00000-0 -40102-5 0  9991,2 52556  53.2180 103.7971 0001198  87.1527 272.9603 15.12115786115161,6907.886,95.231,530.578,528.923,0.0
52556.0,STARLINK-3763,PAYLOAD,2024-06-08 20:42:58,15.12114621,0.0001388,53.2175,102.3067,73.7369,286.3777,-0.00013979,-2.732e-05,0.0,0 STARLINK-3763,1 52556U 22051Z   24160.86317656 -.00002732  00000-0 -13979-3 0  9996,2 52556  53.2175 102.3067 0001388  73.7369 286.3777 15.12114621115283,6907.889,95.231,530.713,528.795,0.0
52556.0,STARLINK-3763,PAYLOAD,2024-06-09 03:03:41,15.12110574,0.0001244,53.2176,101.1145,87.902,272.2116,-3.4048e-05,-8.9e-06,0.0,0 STARLINK-3763,1 52556U 22051Z   24161.12756164 -.00000890  00000-0 -34048-4 0  9991,2 52556  53.2176 101.1145 0001244  87.9020 272.2116 15.12110574115251,6907.902,95.231,530.626,528.907,0.0
52556.0,STARLINK-3763,PAYLOAD,2024-06-09 20:30:39,15.12110689,0.0001204,53.2177,97.8338,88.2154,271.8977,4.6412e-06,-2.16e-06,0.0,0 STARLINK-3763,1 52556U 22051Z   24161.85462114 -.00000216  00000-0  46412-5 0  9990,2 52556  53.2177  97.8338 0001204  88.2154 271.8977 15.12110689115364,6907.901,95.231,530.598,528.935,0.0
52556.0,STARLINK-3763,PAYLOAD,2024-06-10 02:51:22,15.12114271,0.0001296,53.2193,96.642,90.0588,270.0555,-1.7205e-06,-3.27e-06,0.0,0 STARLINK-3763,1 52556U 22051Z   24162.11900474 -.00000327  00000-0 -17205-5 0  9998,2 52556  53.2193  96.6420 0001296  90.0588 270.0555 15.12114271115470,6907.89,95.231,530.651,528.86,0.0
52556.0,STARLINK-3763,PAYLOAD,2024-06-10 12:22:26,15.12109565,0.0001301,53.2193,94.8527,89.4438,270.6705,-4.1584e-05,-1.022e-05,0.0,0 STARLINK-3763,1 52556U 22051Z   24162.51558815 -.00001022  00000-0 -41584-4 0  9999,2 52556  53.2193  94.8527 0001301  89.4438 270.6705 15.12109565115463,6907.905,95.231,530.668,528.871,0.0
52556.0,STARLINK-3763,PAYLOAD,2024-06-11 04:14:13,15.12115215,0.0001258,53.2185,91.8688,81.5212,278.5924,3.2861e-05,2.75e-06,0.0,0 STARLINK-3763,1 52556U 22051Z   24163.17654670  .00000275  00000-0  32861-4 0  9993,2 52556  53.2185  91.8688 0001258  81.5212 278.5924 15.12115215115631,6907.887,95.231,530.621,528.883,0.0
52556.0,STARLINK-3763,PAYLOAD,2024-06-11 12:10:07,15.12109735,0.0001247,53.2188,90.3779,85.7587,274.3549,8.4886e-05,1.182e-05,0.0,0 STARLINK-3763,1 52556U 22051Z   24163.50703037  .00001182  00000-0  84886-4 0  9994,2 52556  53.2188  90.3779 0001247  85.7587 274.3549 15.12109735115613,6907.904,95.231,530.631,528.908,0.0
52556.0,STARLINK-3763,PAYLOAD,2024-06-12 02:26:44,15.12114362,0.0001298,53.2191,87.6942,84.1271,275.9871,-2.3497e-05,-7.07e-06,0.0,0 STARLINK-3763,1 52556U 22051Z   24164.10189979 -.00000707  00000-0 -23497-4 0  9999,2 52556  53.2191  87.6942 0001298  84.1271 275.9871 15.12114362115704,6907.89,95.231,530.652,528.858,0.0
52556.0,STARLINK-3763,PAYLOAD,2024-06-12 11:57:48,15.12112334,0.0001328,53.2197,85.9054,88.0001,272.1145,1.7836e-05,1.3e-07,0.0,0 STARLINK-3763,1 52556U 22051Z   24164.49847822  .00000013  00000-0  17836-4 0  9997,2 52556  53.2197  85.9054 0001328  88.0001 272.1145 15.12112334115837,6907.896,95.231,530.679,528.844,0.0
52556.0,STARLINK-3763,PAYLOAD,2024-06-13 02:14:24,15.12120783,0.0001432,53.2195,83.2221,88.0151,272.1007,2.9147e-05,2.1e-06,0.0,0 STARLINK-3763,1 52556U 22051Z   24165.09334024  .00000210  00000-0  29147-4 0  9996,2 52556  53.2195  83.2221 0001432  88.0151 272.1007 15.12120783115928,6907.87,95.23,530.725,528.746,0.0
52556.0,STARLINK-3763,PAYLOAD,2024-06-13 11:45:29,15.12117346,0.0001421,53.2193,81.433,87.8729,272.2427,-5.7351e-06,-3.97e-06,0.0,0 STARLINK-3763,1 52556U 22051Z   24165.48992156 -.00000397  00000-0 -57351-5 0  9992,2 52556  53.2193  81.4330 0001421  87.8729 272.2427 15.12117346115910,6907.881,95.231,530.728,528.764,0.0
52556.0,STARLINK-3763,PAYLOAD,2024-06-13 22:51:44,15.12114894,0.0001388,53.219,79.3453,88.9898,271.1254,1.905e-05,3.4e-07,0.0,0 STARLINK-3763,1 52556U 22051Z   24165.95259664  .00000034  00000-0  19050-4 0  9993,2 52556  53.2190  79.3453 0001388  88.9898 271.1254 15.12114894115988,6907.888,95.231,530.712,528.795,0.0
52556.0,STARLINK-3763,PAYLOAD,2024-06-14 11:33:10,15.12109773,0.000132,53.2186,76.959,92.7305,267.384,4.4316e-05,4.75e-06,0.0,0 STARLINK-3763,1 52556U 22051Z   24166.48137012  .00000475  00000-0  44316-4 0  9996,2 52556  53.2186  76.9590 0001320  92.7305 267.3840 15.12109773116068,6907.904,95.231,530.681,528.857,0.0
52556.0,STARLINK-3763,PAYLOAD,2024-06-14 22:39:24,15.12121611,0.0001198,53.2189,74.8708,92.5254,267.5876,3.6845e-05,3.45e-06,0.0,0 STARLINK-3763,1 52556U 22051Z   24166.94403628  .00000345  00000-0  36845-4 0  9990,2 52556  53.2189  74.8708 0001198  92.5254 267.5876 15.12121611116137,6907.868,95.23,530.561,528.905,0.0
52556.0,STARLINK-3763,PAYLOAD,2024-06-15 11:20:50,15.12120376,0.0001191,53.2185,72.4867,88.3578,271.7552,-2.9416e-05,-8.1e-06,0.0,0 STARLINK-3763,1 52556U 22051Z   24167.47280975 -.00000810  00000-0 -29416-4 0  9992,2 52556  53.2185  72.4867 0001191  88.3578 271.7552 15.12120376116212,6907.872,95.231,530.559,528.914,0.0
52556.0,STARLINK-3763,PAYLOAD,2024-06-15 22:27:05,15.12117535,0.0001297,53.219,70.3985,84.5127,275.6015,7.9391e-06,-1.59e-06,0.0,0 STARLINK-3763,1 52556U 22051Z   24167.93548463 -.00000159  00000-0  79391-5 0  9995,2 52556  53.2190  70.3985 0001297  84.5127 275.6015 15.12117535116288,6907.88,95.231,530.641,528.849,0.0
52556.0,STARLINK-3763,PAYLOAD,2024-06-16 00:02:16,15.12115856,0.0001209,53.2186,70.1002,84.565,275.5481,8.9813e-06,-1.41e-06,0.0,0 STARLINK-3763,1 52556U 22051Z   24168.00158176 -.00000141  00000-0  89813-5 0  9993,2 52556  53.2186  70.1002 0001209  84.5650 275.5481 15.12115856116296,6907.885,95.231,530.586,528.915,0.0
52556.0,STARLINK-3763,PAYLOAD,2024-06-16 22:14:46,15.12115779,0.0001172,53.2191,65.927,72.0067,288.1054,4.048e-07,-2.9e-06,0.0,0 STARLINK-3763,1 52556U 22051Z   24168.92693194 -.00000290  00000-0  40480-6 0  9991,2 52556  53.2191  65.9270 0001172  72.0067 288.1054 15.12115779116430,6907.886,95.231,530.56,528.941,0.0
